{
    "links": {
        "self": "http://www.neowsapp.com/rest/v1/neo/3841960?api_key=iIulBulltgU6a56xZRHN4H3l9WmuAYTsLGpBGhQ2"
    },
    "id": "3841960",
    "neo_reference_id": "3841960",
    "name": "(2019 KC)",
    "designation": "2019 KC",
    "nasa_jpl_url": "http://ssd.jpl.nasa.gov/sbdb.cgi?sstr=3841960",
    "absolute_magnitude_h": 22.4,
    "estimated_diameter": {
        "kilometers": {
            "estimated_diameter_min": 0.0880146521,
            "estimated_diameter_max": 0.1968067451
        },
        "meters": {
            "estimated_diameter_min": 88.0146520901,
            "estimated_diameter_max": 196.8067450894
        },
        "miles": {
            "estimated_diameter_min": 0.0546897524,
            "estimated_diameter_max": 0.122290004
        },
        "feet": {
            "estimated_diameter_min": 288.7619911632,
            "estimated_diameter_max": 645.6914415591
        }
    },
    "is_potentially_hazardous_asteroid": false,
    "close_approach_data": [
        {
            "close_approach_date": "1929-04-01",
            "close_approach_date_full": "1929-Apr-01 13:40",
            "epoch_date_close_approach": -1286014800000,
            "relative_velocity": {
                "kilometers_per_second": "10.2139988763",
                "kilometers_per_hour": "36770.3959547585",
                "miles_per_hour": "22847.6940864442"
            },
            "miss_distance": {
                "astronomical": "0.044520979",
                "lunar": "17.318660831",
                "kilometers": "6660243.62871473",
                "miles": "4138483.486854074"
            },
            "orbiting_body": "Earth"
        },
        {
            "close_approach_date": "2019-05-13",
            "close_approach_date_full": "2019-May-13 04:23",
            "epoch_date_close_approach": 1557721380000,
            "relative_velocity": {
                "kilometers_per_second": "14.6562622024",
                "kilometers_per_hour": "52762.5439287192",
                "miles_per_hour": "32784.5929205978"
            },
            "miss_distance": {
                "astronomical": "0.1542379039",
                "lunar": "59.9985446171",
                "kilometers": "23073661.896704693",
                "miles": "14337308.6727750434"
            },
            "orbiting_body": "Earth"
        },
        {
            "close_approach_date": "2133-05-22",
            "close_approach_date_full": "2133-May-22 20:49",
            "epoch_date_close_approach": 5156081340000,
            "relative_velocity": {
                "kilometers_per_second": "17.0558449276",
                "kilometers_per_hour": "61401.0417394907",
                "miles_per_hour": "38152.2195186296"
            },
            "miss_distance": {
                "astronomical": "0.2215802089",
                "lunar": "86.1947012621",
                "kilometers": "33147927.285595043",
                "miles": "20597166.9119478734"
            },
            "orbiting_body": "Earth"
        }
    ],
    "orbital_data": {
        "orbit_id": "7",
        "orbit_determination_date": "2019-06-26 05:38:23",
        "first_observation_date": "2019-05-16",
        "last_observation_date": "2019-06-26",
        "data_arc_in_days": 41,
        "observations_used": 68,
        "orbit_uncertainty": "6",
        "minimum_orbit_intersection": ".0126961",
        "jupiter_tisserand_invariant": "2.943",
        "epoch_osculation": "2459000.5",
        "eccentricity": ".6551009779468422",
        "semi_major_axis": "2.829661530838246",
        "inclination": "7.635119163224101",
        "ascending_node_longitude": "202.9064725694444",
        "orbital_period": "1738.601951637947",
        "perihelion_distance": ".9759474947275524",
        "perihelion_argument": "346.0631528457541",
        "aphelion_distance": "4.683375566948939",
        "perihelion_time": "2458588.405516660461",
        "mean_anomaly": "85.32948778900709",
        "mean_motion": ".2070629218268402",
        "equinox": "J2000",
        "orbit_class": {
            "orbit_class_type": "APO",
            "orbit_class_description": "Near-Earth asteroid orbits which cross the Earth’s orbit similar to that of 1862 Apollo",
            "orbit_class_range": "a (semi-major axis) > 1.0 AU; q (perihelion) < 1.017 AU"
        }
    },
    "is_sentry_object": false
}